NORAD_CAT_ID,OBJECT_NAME,OBJECT_TYPE,EPOCH,MEAN_MOTION,ECCENTRICITY,INCLINATION,RA_OF_ASC_NODE,ARG_OF_PERICENTER,MEAN_ANOMALY,BSTAR,MEAN_MOTION_DOT,MEAN_MOTION_DDOT,TLE_LINE0,TLE_LINE1,TLE_LINE2,SEMIMAJOR_AXIS,PERIOD,APOGEE,PERIGEE,DECAYED
55415.0,STARLINK-5618,PAYLOAD,2023-02-26 08:38:42,15.70011581,0.0003114,69.9985,17.5189,264.1572,95.9269,0.00024487,0.0002944,0.0,0 STARLINK-5618,1 55415U 23014AA  23057.36021665  .00029440  00000-0  24487-3 0  9993,2 55415  69.9985  17.5189 0003114 264.1572  95.9269 15.70011581  4233,6737.001,91.719,360.964,356.768,0.0
55415.0,STARLINK-5618,PAYLOAD,2023-02-26 22:24:29,15.69932022,0.000331,70.0004,15.9081,258.9054,101.177,4.2214e-05,4.868e-05,0.0,0 STARLINK-5618,1 55415U 23014AA  23057.93367284  .00004868  00000-0  42214-4 0  9992,2 55415  70.0004  15.9081 0003310 258.9054 101.1770 15.69932022  4322,6737.228,91.724,361.324,356.863,0.0
55415.0,STARLINK-5618,PAYLOAD,2023-02-27 04:31:29,15.69922431,0.0003444,69.9996,15.1911,257.0146,103.0665,0.0001744,0.00020808,0.0,0 STARLINK-5618,1 55415U 23014AA  23058.18854145  .00020808  00000-0  17440-3 0  9991,2 55415  69.9996  15.1911 0003444 257.0146 103.0665 15.69922431  5309,6737.256,91.724,361.441,356.801,0.0
55415.0,STARLINK-5618,PAYLOAD,2023-02-27 06:03:15,15.69934527,0.0003099,70.0007,15.0136,256.8824,103.2026,5.7098e-05,6.661e-05,0.0,0 STARLINK-5618,1 55415U 23014AA  23058.25225817  .00006661  00000-0  57098-4 0  9992,2 55415  70.0007  15.0136 0003099 256.8824 103.2026 15.69934527  5312,6737.221,91.724,361.174,356.998,0.0
55415.0,STARLINK-5618,PAYLOAD,2023-02-28 03:27:47,15.6991592,0.0003823,70.0003,12.5051,267.0942,92.9816,0.0001565,0.00018642,0.0,0 STARLINK-5618,1 55415U 23014AA  23059.14430391  .00018642  00000-0  15650-3 0  9995,2 55415  70.0003  12.5051 0003823 267.0942  92.9816 15.69915920  4514,6737.275,91.725,361.715,356.564,0.0
55415.0,STARLINK-5618,PAYLOAD,2023-02-28 06:31:18,15.69918834,0.0003522,70.0008,12.1474,264.3827,95.6967,0.00010968,0.00012993,0.0,0 STARLINK-5618,1 55415U 23014AA  23059.27173839  .00012993  00000-0  10968-3 0  9990,2 55415  70.0008  12.1474 0003522 264.3827  95.6967 15.69918834  5472,6737.266,91.724,361.504,356.758,0.0
55415.0,STARLINK-5618,PAYLOAD,2023-02-28 21:48:50,15.69897575,0.0002577,70.0013,10.3575,257.2391,102.8516,2.2147e-05,2.448e-05,0.0,0 STARLINK-5618,1 55415U 23014AA  23059.90892220  .00002448  00000-0  22147-4 0  9999,2 55415  70.0013  10.3575 0002577 257.2391 102.8516 15.69897575  5576,6737.327,91.726,360.928,357.456,0.0
55415.0,STARLINK-5618,PAYLOAD,2023-02-28 23:20:36,15.69893803,0.000259,70.0023,10.18,253.7428,106.3483,-3.3251e-06,-6.11e-06,0.0,0 STARLINK-5618,1 55415U 23014AA  23059.97264037 -.00000611  00000-0 -33251-5 0  9996,2 55415  70.0023  10.1800 0002590 253.7428 106.3483 15.69893803  4642,6737.338,91.726,360.948,357.458,0.0
55415.0,STARLINK-5618,PAYLOAD,2023-03-01 06:58:47,15.71442323,0.0009556,69.999,9.2787,298.6851,61.3385,0.0056889,0.00802817,0.0,0 STARLINK-5618,1 55415U 23014AA  23060.29082258  .00802817  00000-0  56889-2 0  9991,2 55415  69.9990   9.2787 0009556 298.6851  61.3385 15.71442323  4698,6732.911,91.636,361.21,348.342,0.0
55415.0,STARLINK-5618,PAYLOAD,2023-03-01 22:00:00,15.69932487,0.00037,69.9996,7.5208,253.211,40.734,0.00019745,0.00023605,0.0,0 STARLINK-5618,1 55415U 23014AA  23060.91667824  .00023605  00000-0  19745-3 0  9999,2 55415  69.9996   7.5208 0003700 253.2110  40.7340 15.69932487  4798,6737.227,91.724,361.585,356.599,0.0
55415.0,STARLINK-5618,PAYLOAD,2023-03-02 02:52:07,15.69925636,0.0003616,69.9995,6.9511,260.7554,99.3233,4.3304e-05,4.998e-05,0.0,0 STARLINK-5618,1 55415U 23014AA  23061.11953275  .00004998  00000-0  43304-4 0  9993,2 55415  69.9995   6.9511 0003616 260.7554  99.3233 15.69925636  4821,6737.247,91.724,361.548,356.676,0.0
55415.0,STARLINK-5618,PAYLOAD,2023-03-02 05:55:37,15.6993906,0.0003293,70.0002,6.5924,251.9687,108.115,8.4288e-07,-1.11e-06,0.0,0 STARLINK-5618,1 55415U 23014AA  23061.24696379 -.00000111  00000-0  84288-6 0  9998,2 55415  70.0002   6.5924 0003293 251.9687 108.1150 15.69939060  5786,6737.208,91.723,361.292,356.855,0.0
55415.0,STARLINK-5618,PAYLOAD,2023-03-03 06:23:38,15.69948884,0.0003905,69.9999,3.7278,254.1067,105.9699,3.4393e-05,3.929e-05,0.0,0 STARLINK-5618,1 55415U 23014AA  23062.26641824  .00003929  00000-0  34393-4 0  9995,2 55415  69.9999   3.7278 0003905 254.1067 105.9699 15.69948884  5008,6737.18,91.723,361.676,356.414,0.0
55415.0,STARLINK-5618,PAYLOAD,2023-03-03 18:37:40,15.69929159,0.0003407,69.9991,2.2931,259.2022,100.879,4.1206e-05,4.746e-05,0.0,0 STARLINK-5618,1 55415U 23014AA  23062.77616029  .00004746  00000-0  41206-4 0  9999,2 55415  69.9991   2.2931 0003407 259.2022 100.8790 15.69929159  5082,6737.237,91.724,361.397,356.806,0.0
55415.0,STARLINK-5618,PAYLOAD,2023-03-03 21:41:09,15.69937157,0.0003673,69.9998,1.9336,254.2376,105.8415,-2.843e-05,-3.632e-05,0.0,0 STARLINK-5618,1 55415U 23014AA  23062.90358712 -.00003632  00000-0 -28430-4 0  9995,2 55415  69.9998   1.9336 0003673 254.2376 105.8415 15.69937157  6049,6737.214,91.723,361.553,356.604,0.0
55415.0,STARLINK-5618,PAYLOAD,2023-03-04 08:23:26,15.69921195,0.0003496,69.9985,0.6788,266.8707,93.2088,-6.333e-06,-9.74e-06,0.0,0 STARLINK-5618,1 55415U 23014AA  23063.34961189 -.00000974  00000-0 -63330-5 0  9997,2 55415  69.9985   0.6788 0003496 266.8707  93.2088 15.69921195  5176,6737.259,91.724,361.48,356.769,0.0
55415.0,STARLINK-5618,PAYLOAD,2023-03-04 19:05:42,15.69918169,0.0003465,69.9982,359.4251,266.0521,94.0279,-1.28e-05,-1.751e-05,0.0,0 STARLINK-5618,1 55415U 23014AA  23063.79563228 -.00001751  00000-0 -12800-4 0  9997,2 55415  69.9982 359.4251 0003465 266.0521  94.0279 15.69918169  6185,6737.268,91.725,361.468,356.799,0.0
55415.0,STARLINK-5618,PAYLOAD,2023-03-05 05:47:58,15.69919183,0.0003282,70.0005,358.1722,272.7243,87.3578,2.4392e-06,8.1e-07,0.0,0 STARLINK-5618,1 55415U 23014AA  23064.24164954  .00000081  00000-0  24392-5 0  9994,2 55415  70.0005 358.1722 0003282 272.7243  87.3578 15.69919183  6257,6737.265,91.724,361.341,356.919,0.0
55415.0,STARLINK-5618,PAYLOAD,2023-03-05 22:37:15,15.69920649,0.000354,69.9999,356.2016,275.226,84.8532,2.0426e-05,2.244e-05,0.0,0 STARLINK-5618,1 55415U 23014AA  23064.94253543  .00002244  00000-0  20426-4 0  9990,2 55415  69.9999 356.2016 0003540 275.2260  84.8532 15.69920649  6368,6737.261,91.724,361.511,356.741,0.0
55415.0,STARLINK-5618,PAYLOAD,2023-03-06 01:40:44,15.6993992,0.0003518,70.0,355.8425,263.9995,96.0799,6.9701e-05,8.182e-05,0.0,0 STARLINK-5618,1 55415U 23014AA  23065.06996177  .00008182  00000-0  69701-4 0  9997,2 55415  70.0000 355.8425 0003518 263.9995  96.0799 15.69939920  5447,6737.206,91.723,361.441,356.701,0.0
55415.0,STARLINK-5618,PAYLOAD,2023-03-06 07:47:45,15.69924988,0.0003839,69.9984,355.1259,265.5406,94.5351,9.8396e-06,9.7e-06,0.0,0 STARLINK-5618,1 55415U 23014AA  23065.32482942  .00000970  00000-0  98396-5 0  9996,2 55415  69.9984 355.1259 0003839 265.5406  94.5351 15.69924988  5483,6737.249,91.724,361.7,356.527,0.0
55415.0,STARLINK-5618,PAYLOAD,2023-03-06 18:30:02,15.6990976,0.0003339,69.9985,353.8707,262.1449,97.9368,-1.522e-05,-2.041e-05,0.0,0 STARLINK-5618,1 55415U 23014AA  23065.77085715 -.00002041  00000-0 -15220-4 0  9999,2 55415  69.9985 353.8707 0003339 262.1449  97.9368 15.69909760  5556,6737.292,91.725,361.407,356.908,0.0
55415.0,STARLINK-5618,PAYLOAD,2023-03-06 21:33:32,15.69915662,0.000323,69.9985,353.5115,254.203,105.8809,-3.2923e-06,-6.08e-06,0.0,0 STARLINK-5618,1 55415U 23014AA  23065.89828902 -.00000608  00000-0 -32923-5 0  9992,2 55415  69.9985 353.5115 0003230 254.2030 105.8809 15.69915662  6518,6737.275,91.725,361.316,356.964,0.0
55415.0,STARLINK-5618,PAYLOAD,2023-03-07 05:12:16,15.6994636,0.0004115,69.9987,352.6169,265.6462,94.4264,8.3867e-05,9.894e-05,0.0,0 STARLINK-5618,1 55415U 23014AA  23066.21686046  .00009894  00000-0  83867-4 0  9996,2 55415  69.9987 352.6169 0004115 265.6462  94.4264 15.69946360  5625,6737.187,91.723,361.825,356.28,0.0
55415.0,STARLINK-5618,PAYLOAD,2023-03-07 18:58:03,15.69932735,0.0003685,69.9989,351.006,265.2672,94.8103,3.167e-05,3.598e-05,0.0,0 STARLINK-5618,1 55415U 23014AA  23066.79031680  .00003598  00000-0  31670-4 0  9997,2 55415  69.9989 351.0060 0003685 265.2672  94.8103 15.69932735  5717,6737.226,91.724,361.574,356.609,0.0
55415.0,STARLINK-5618,PAYLOAD,2023-03-08 02:36:48,15.69949225,0.0002748,69.9994,350.1103,270.9197,89.1684,7.5566e-05,8.892e-05,0.0,0 STARLINK-5618,1 55415U 23014AA  23067.10889305  .00008892  00000-0  75566-4 0  9992,2 55415  69.9994 350.1103 0002748 270.9197  89.1684 15.69949225  5763,6737.179,91.723,360.896,357.193,0.0
55415.0,STARLINK-5618,PAYLOAD,2023-03-08 04:08:31,15.7002931,0.0004198,69.9984,349.9296,266.1092,93.9623,0.00032249,0.0003892,0.0,0 STARLINK-5618,1 55415U 23014AA  23067.17258142  .00038920  00000-0  32249-3 0  9993,2 55415  69.9984 349.9296 0004198 266.1092  93.9623 15.70029310  5776,6736.95,91.718,361.643,355.987,0.0
55415.0,STARLINK-5618,PAYLOAD,2023-03-09 19:53:57,15.69949211,0.0004082,69.9996,345.2721,293.7266,66.3502,-0.00014035,-0.00017075,0.0,0 STARLINK-5618,1 55415U 23014AA  23068.82914307 -.00017075  00000-0 -14035-3 0  9991,2 55415  69.9996 345.2721 0004082 293.7266  66.3502 15.69949211  6031,6737.179,91.723,361.794,356.294,0.0
55415.0,STARLINK-5618,PAYLOAD,2023-03-09 21:25:43,15.69947318,0.0006542,69.9988,345.0938,301.2822,58.7732,-0.00012813,-0.00015622,0.0,0 STARLINK-5618,1 55415U 23014AA  23068.89286165 -.00015622  00000-0 -12813-3 0  9990,2 55415  69.9988 345.0938 0006542 301.2822  58.7732 15.69947318  6986,6737.185,91.723,363.457,354.642,0.0
55415.0,STARLINK-5618,PAYLOAD,2023-03-10 11:11:28,15.69942538,0.0002918,69.9988,343.4798,289.4451,70.6429,0.0001181,0.00014021,0.0,0 STARLINK-5618,1 55415U 23014AA  23069.46630399  .00014021  00000-0  11810-3 0  9992,2 55415  69.9988 343.4798 0002918 289.4451  70.6429 15.69942538  6132,6737.198,91.723,361.029,357.097,0.0
